     3.02           N: GNSS NAV DATA    J: QZSS             RINEX VERSION / TYPE
cnvtToRINEX 2.30.0  convertToRINEX OPR  20140513 072944 UTC PGM / RUN BY / DATE 
----------------------------------------------------------- COMMENT             
QZSA    0.0000D+00  0.0000D+00  0.0000D+00  0.0000D+00      IONOSPHERIC CORR    
QZSB    0.0000D+00  0.0000D+00  0.0000D+00  0.0000D+00      IONOSPHERIC CORR    
QZUT  0.0000000000D+00 0.000000000D+00      0    0          TIME SYSTEM CORR    
    17                                                      LEAP SECONDS        
                                                            END OF HEADER       
J01 2016 05 05 22 45 04-0.327751506120E-03 0.341060513165E-10-0.277555756156E-16
     0.184000000000E+03 0.254937500000E+03 0.227723771323E-08-0.178054005153E+01
     0.785849988461E-05 0.751390391961E-01 0.785849988461E-05 0.649280592537E+04
     0.427504000000E+06 0.118836760521E-05-0.820196472864E+00-0.152736902237E-05
     0.709918807082E+00-0.111125000000E+03-0.157815543818E+01-0.200508351978E-08
     0.758245869698E-09 0.200000000000E+01 0.189500000000E+04 0.100000000000E+01
     0.240000000000E+01 0.100000000000E+01-0.512227416039E-08 0.184000000000E+03
     0.423936000000E+06 0.400000000000E+01 0.000000000000E+00 0.000000000000E+00
J01 2016 05 06 15 15 12-0.325720757246E-03 0.350155460183E-10 0.555111512313E-16
     0.250000000000E+03-0.101875000000E+02 0.256510684700E-08 0.255297402655E+01
     0.225380063057E-06 0.751444589114E-01 0.225380063057E-06 0.649282012939E+04
     0.486912000000E+06-0.398606061935E-06-0.820371645601E+00-0.573694705963E-06
     0.709938240486E+00-0.367906250000E+03-0.157825383258E+01-0.236867009319E-08
     0.168578450541E-09 0.200000000000E+01 0.189500000000E+04 0.100000000000E+01
     0.240000000000E+01 0.100000000000E+01-0.512227416039E-08 0.250000000000E+03
     0.483396000000E+06 0.400000000000E+01 0.000000000000E+00 0.000000000000E+00
J01 2016 05 06 15 30 08-0.325690954924E-03 0.346744855051E-10 0.277555756156E-16
     0.251000000000E+03 0.144375000000E+02 0.253653422826E-08 0.261831552296E+01
     0.821426510811E-06 0.751421485329E-01 0.821426510811E-06 0.649282576942E+04
     0.487808000000E+06-0.281259417534E-06-0.820374452940E+00-0.689178705215E-06
     0.709938329724E+00-0.386812500000E+03-0.157823772878E+01-0.241688638730E-08
     0.191436545529E-09 0.200000000000E+01 0.189500000000E+04 0.100000000000E+01
     0.240000000000E+01 0.100000000000E+01-0.512227416039E-08 0.251000000000E+03
     0.484206000000E+06 0.400000000000E+01 0.000000000000E+00 0.000000000000E+00
J01 2016 05 06 15 45 04-0.325661152601E-03 0.343334249919E-10 0.000000000000E+00
     0.252000000000E+03 0.380937500000E+02 0.250939024046E-08 0.268365782837E+01
     0.139884650707E-05 0.751396494452E-01 0.139884650707E-05 0.649283170319E+04
     0.488704000000E+06-0.108033418655E-06-0.820377525068E+00-0.756233930588E-06
     0.709938417499E+00-0.409468750000E+03-0.157822248225E+01-0.247081720517E-08
     0.230723896291E-09 0.200000000000E+01 0.189500000000E+04 0.100000000000E+01
     0.240000000000E+01 0.100000000000E+01-0.512227416039E-08 0.252000000000E+03
     0.485106000000E+06 0.400000000000E+01 0.000000000000E+00 0.000000000000E+00
J01 2016 05 06 16 00 00-0.325630884618D-03 0.342197381542D-10 0.000000000000D+00
     0.253000000000D+03 0.596250000000D+02 0.248117477946D-08 0.274900159522D+01
     0.192597508430D-05 0.751370486105D-01 0.192597508430D-05 0.649283771896D+04
     0.489600000000D+06 0.912696123123D-07-0.820380768358D+00-0.765547156334D-06
     0.709938540384D+00-0.435093750000D+03-0.157820882445D+01-0.252367654983D-08
     0.282154610015D-09 0.200000000000D+01 0.189500000000D+04 0.100000000000D+01
     0.240000000000D+01 0.100000000000D+01-0.512227416039D-08 0.253000000000D+03
     0.486006000000D+06 0.400000000000D+01 0.000000000000D+00 0.000000000000D+00